MALLIGYONG-1            
1 58400U 23179A   24164.90575556  .00006675  00000+0  30388-3 0  9996
2 58400  97.4041  51.8289 0002072 151.2616 208.8734 15.21021891 31073
